[{"OBJECT_NAME":"LEMUR-2-AMANDA-SVANTE","OBJECT_ID":"2021-034B","EPOCH":"2026-03-09T18:37:58.823328","MEAN_MOTION":15.28469003,"ECCENTRICITY":0.00027027,"INCLINATION":97.5829,"RA_OF_ASC_NODE":144.8625,"ARG_OF_PERICENTER":205.4721,"MEAN_ANOMALY":154.6385,"EPHEMERIS_TYPE":0,"CLASSIFICATION_TYPE":"U","NORAD_CAT_ID":48269,"ELEMENT_SET_NO":999,"REV_AT_EPOCH":26584,"BSTAR":0.0011134246,"MEAN_MOTION_DOT":0.00030872,"MEAN_MOTION_DDOT":0},{"OBJECT_NAME":"STARLINK-34616","OBJECT_ID":"2025-253B","EPOCH":"2026-03-09T17:17:06.390240","MEAN_MOTION":15.27592386,"ECCENTRICITY":0.00011733,"INCLINATION":43.0023,"RA_OF_ASC_NODE":211.9475,"ARG_OF_PERICENTER":258.2993,"MEAN_ANOMALY":101.7727,"EPHEMERIS_TYPE":0,"CLASSIFICATION_TYPE":"U","NORAD_CAT_ID":66320,"ELEMENT_SET_NO":999,"REV_AT_EPOCH":2033,"BSTAR":0.0014923144,"MEAN_MOTION_DOT":0.00041047,"MEAN_MOTION_DDOT":0}]
